STARLINK-30576          
1 58065U 23158Q   26065.31252926 -.00003763  00000+0 -12727-3 0  9994
2 58065  43.0030  46.1058 0001133 272.9558  87.1164 15.27588114133057
STARLINK-30571          
1 58066U 23158R   26066.00008102  .00006230  00000+0  24168-3 0  9999
2 58066  43.0012  42.4195 0001315 255.4246 204.2725 15.26749534  5799
STARLINK-30567          
1 58067U 23158S   26065.99080235  .00005170  00000+0  19725-3 0  9999
2 58067  43.0032  42.5758 0001356 255.9530 104.1171 15.27581388133151
STARLINK-30569          
1 58068U 23158T   26066.16670139  .00059010  00000+0  33653-2 0  9995
2 58068  43.0007  43.5017 0000815 296.9851 224.7380 15.11965651  5727
STARLINK-30480          
1 58069U 23158U   26065.56733963  .00007280  00000+0  27381-3 0  9998
2 58069  43.0022 262.4627 0002880 277.9502  82.1023 15.27579349134769
STARLINK-30532          
1 58070U 23158V   26065.63840320  .00000521  00000+0  29102-4 0  9999
2 58070  43.0002  44.2456 0000867 283.7476  76.3279 15.26738428133102
STARLINK-30513          
1 58071U 23158W   26066.16670139  .00487955  10143-3  12942-2 0  9993
2 58071  42.9790  97.2355 0023137  90.2324  19.8979 15.93329590  5959
STARLINK-30506          
1 58072U 23158X   26065.97927965  .00105305  00000+0  37892-2 0  9998
2 58072  43.0006  42.4919 0001490 260.3812  99.6871 15.27516927133150
STARLINK-30604          
1 58075U 23160A   26066.10808896  .00001354  00000+0  60164-4 0  9990
2 58075  43.0028  92.2405 0001587 266.6618  93.4052 15.26742461132559
STARLINK-30500          
1 58076U 23160B   26066.16670139  .00001343  00000+0  59733-4 0  9992
2 58076  42.9997  92.0173 0001138 260.6593  12.4759 15.26741736  5818
STARLINK-30613          
1 58077U 23160C   26066.11544530  .00002979  00000+0  12072-3 0  9993
2 58077  43.0016  92.2951 0001467 271.6886  88.3797 15.26735869132568
STARLINK-30597          
1 58078U 23160D   26066.16623015 -.00002041  00000+0 -66469-4 0  9997
2 58078  43.0025  91.8000 0000928 252.3702 107.7048 15.26728031132561
STARLINK-30598          
1 58079U 23160E   26066.05747266  .00001744  00000+0  72881-4 0  9993
2 58079  43.0028  92.7194 0001171 281.4541  78.6179 15.27576435132543
STARLINK-30603          
1 58080U 23160F   26066.12284841  .00001552  00000+0  67577-4 0  9991
2 58080  43.0059  92.3519 0002048 300.9650  59.1000 15.26731745132552
STARLINK-30602          
1 58081U 23160G   26066.16670139  .00002178  00000+0  10157-3 0  9991
2 58081  43.0009  92.3280 0001107 269.8859 230.0372 15.22879351  5814
STARLINK-30610          
1 58082U 23160H   26066.12676427  .00000892  00000+0  42931-4 0  9991
2 58082  42.9965  92.3680 0001914 170.3807 189.7081 15.26748829132551
STARLINK-30551          
1 58083U 23160J   26066.13873991 -.00000287  00000+0 -61461-5 0  9998
2 58083  43.0024  94.1567 0001225 272.7662  87.3040 15.02534903132531
