[{"OBJECT_NAME":"STARLINK-30576","OBJECT_ID":"2023-158Q","EPOCH":"2026-03-06T07:30:02.528064","MEAN_MOTION":15.27588114,"ECCENTRICITY":0.00011336,"INCLINATION":43.003,"RA_OF_ASC_NODE":46.1058,"ARG_OF_PERICENTER":272.9558,"MEAN_ANOMALY":87.1164,"EPHEMERIS_TYPE":0,"CLASSIFICATION_TYPE":"U","NORAD_CAT_ID":58065,"ELEMENT_SET_NO":999,"REV_AT_EPOCH":13305,"BSTAR":-0.00012727418,"MEAN_MOTION_DOT":-3.763e-5,"MEAN_MOTION_DDOT":0},{"OBJECT_NAME":"STARLINK-30571","OBJECT_ID":"2023-158R","EPOCH":"2026-03-07T00:00:07.000128","MEAN_MOTION":15.26749534,"ECCENTRICITY":0.0001315,"INCLINATION":43.0012,"RA_OF_ASC_NODE":42.4195,"ARG_OF_PERICENTER":255.4246,"MEAN_ANOMALY":204.2725,"EPHEMERIS_TYPE":0,"CLASSIFICATION_TYPE":"U","NORAD_CAT_ID":58066,"ELEMENT_SET_NO":999,"REV_AT_EPOCH":579,"BSTAR":0.00024168,"MEAN_MOTION_DOT":6.23e-5,"MEAN_MOTION_DDOT":0},{"OBJECT_NAME":"STARLINK-30567","OBJECT_ID":"2023-158S","EPOCH":"2026-03-06T23:46:45.323040","MEAN_MOTION":15.27581388,"ECCENTRICITY":0.0001356,"INCLINATION":43.0032,"RA_OF_ASC_NODE":42.5758,"ARG_OF_PERICENTER":255.953,"MEAN_ANOMALY":104.1171,"EPHEMERIS_TYPE":0,"CLASSIFICATION_TYPE":"U","NORAD_CAT_ID":58067,"ELEMENT_SET_NO":999,"REV_AT_EPOCH":13315,"BSTAR":0.00019725,"MEAN_MOTION_DOT":5.17e-5,"MEAN_MOTION_DDOT":0},{"OBJECT_NAME":"STARLINK-30569","OBJECT_ID":"2023-158T","EPOCH":"2026-03-07T04:00:03.000096","MEAN_MOTION":15.11965651,"ECCENTRICITY":8.15e-5,"INCLINATION":43.0007,"RA_OF_ASC_NODE":43.5017,"ARG_OF_PERICENTER":296.9851,"MEAN_ANOMALY":224.738,"EPHEMERIS_TYPE":0,"CLASSIFICATION_TYPE":"U","NORAD_CAT_ID":58068,"ELEMENT_SET_NO":999,"REV_AT_EPOCH":572,"BSTAR":0.0033653,"MEAN_MOTION_DOT":0.0005901,"MEAN_MOTION_DDOT":0},{"OBJECT_NAME":"STARLINK-30480","OBJECT_ID":"2023-158U","EPOCH":"2026-03-06T13:36:58.144032","MEAN_MOTION":15.27579349,"ECCENTRICITY":0.000288,"INCLINATION":43.0022,"RA_OF_ASC_NODE":262.4627,"ARG_OF_PERICENTER":277.9502,"MEAN_ANOMALY":82.1023,"EPHEMERIS_TYPE":0,"CLASSIFICATION_TYPE":"U","NORAD_CAT_ID":58069,"ELEMENT_SET_NO":999,"REV_AT_EPOCH":13476,"BSTAR":0.000273806,"MEAN_MOTION_DOT":7.28e-5,"MEAN_MOTION_DDOT":0},{"OBJECT_NAME":"STARLINK-30532","OBJECT_ID":"2023-158V","EPOCH":"2026-03-06T15:19:18.036480","MEAN_MOTION":15.26738428,"ECCENTRICITY":8.676e-5,"INCLINATION":43.0002,"RA_OF_ASC_NODE":44.2456,"ARG_OF_PERICENTER":283.7476,"MEAN_ANOMALY":76.3279,"EPHEMERIS_TYPE":0,"CLASSIFICATION_TYPE":"U","NORAD_CAT_ID":58070,"ELEMENT_SET_NO":999,"REV_AT_EPOCH":13310,"BSTAR":2.9102263e-5,"MEAN_MOTION_DOT":5.21e-6,"MEAN_MOTION_DDOT":0},{"OBJECT_NAME":"STARLINK-30513","OBJECT_ID":"2023-158W","EPOCH":"2026-03-07T04:00:03.000096","MEAN_MOTION":15.9332959,"ECCENTRICITY":0.0023137,"INCLINATION":42.979,"RA_OF_ASC_NODE":97.2355,"ARG_OF_PERICENTER":90.2324,"MEAN_ANOMALY":19.8979,"EPHEMERIS_TYPE":0,"CLASSIFICATION_TYPE":"U","NORAD_CAT_ID":58071,"ELEMENT_SET_NO":999,"REV_AT_EPOCH":595,"BSTAR":0.0012942,"MEAN_MOTION_DOT":0.00487955,"MEAN_MOTION_DDOT":0.00010143},{"OBJECT_NAME":"STARLINK-30506","OBJECT_ID":"2023-158X","EPOCH":"2026-03-06T23:30:09.761760","MEAN_MOTION":15.27516927,"ECCENTRICITY":0.000149,"INCLINATION":43.0006,"RA_OF_ASC_NODE":42.4919,"ARG_OF_PERICENTER":260.3812,"MEAN_ANOMALY":99.6871,"EPHEMERIS_TYPE":0,"CLASSIFICATION_TYPE":"U","NORAD_CAT_ID":58072,"ELEMENT_SET_NO":999,"REV_AT_EPOCH":13315,"BSTAR":0.0037892,"MEAN_MOTION_DOT":0.00105305,"MEAN_MOTION_DDOT":0},{"OBJECT_NAME":"STARLINK-30604","OBJECT_ID":"2023-160A","EPOCH":"2026-03-07T02:35:38.886144","MEAN_MOTION":15.26742461,"ECCENTRICITY":0.0001587,"INCLINATION":43.0028,"RA_OF_ASC_NODE":92.2405,"ARG_OF_PERICENTER":266.6618,"MEAN_ANOMALY":93.4052,"EPHEMERIS_TYPE":0,"CLASSIFICATION_TYPE":"U","NORAD_CAT_ID":58075,"ELEMENT_SET_NO":999,"REV_AT_EPOCH":13255,"BSTAR":6.0164e-5,"MEAN_MOTION_DOT":1.354e-5,"MEAN_MOTION_DDOT":0},{"OBJECT_NAME":"STARLINK-30500","OBJECT_ID":"2023-160B","EPOCH":"2026-03-07T04:00:03.000096","MEAN_MOTION":15.26741736,"ECCENTRICITY":0.0001138,"INCLINATION":42.9997,"RA_OF_ASC_NODE":92.0173,"ARG_OF_PERICENTER":260.6593,"MEAN_ANOMALY":12.4759,"EPHEMERIS_TYPE":0,"CLASSIFICATION_TYPE":"U","NORAD_CAT_ID":58076,"ELEMENT_SET_NO":999,"REV_AT_EPOCH":581,"BSTAR":5.9733e-5,"MEAN_MOTION_DOT":1.343e-5,"MEAN_MOTION_DDOT":0},{"OBJECT_NAME":"STARLINK-30613","OBJECT_ID":"2023-160C","EPOCH":"2026-03-07T02:46:14.473920","MEAN_MOTION":15.26735869,"ECCENTRICITY":0.0001467,"INCLINATION":43.0016,"RA_OF_ASC_NODE":92.2951,"ARG_OF_PERICENTER":271.6886,"MEAN_ANOMALY":88.3797,"EPHEMERIS_TYPE":0,"CLASSIFICATION_TYPE":"U","NORAD_CAT_ID":58077,"ELEMENT_SET_NO":999,"REV_AT_EPOCH":13256,"BSTAR":0.00012072,"MEAN_MOTION_DOT":2.979e-5,"MEAN_MOTION_DDOT":0},{"OBJECT_NAME":"STARLINK-30597","OBJECT_ID":"2023-160D","EPOCH":"2026-03-07T03:59:22.284960","MEAN_MOTION":15.26728031,"ECCENTRICITY":9.28e-5,"INCLINATION":43.0025,"RA_OF_ASC_NODE":91.8,"ARG_OF_PERICENTER":252.3702,"MEAN_ANOMALY":107.7048,"EPHEMERIS_TYPE":0,"CLASSIFICATION_TYPE":"U","NORAD_CAT_ID":58078,"ELEMENT_SET_NO":999,"REV_AT_EPOCH":13256,"BSTAR":-6.6469e-5,"MEAN_MOTION_DOT":-2.041e-5,"MEAN_MOTION_DDOT":0},{"OBJECT_NAME":"STARLINK-30598","OBJECT_ID":"2023-160E","EPOCH":"2026-03-07T01:22:45.637824","MEAN_MOTION":15.27576435,"ECCENTRICITY":0.0001171,"INCLINATION":43.0028,"RA_OF_ASC_NODE":92.7194,"ARG_OF_PERICENTER":281.4541,"MEAN_ANOMALY":78.6179,"EPHEMERIS_TYPE":0,"CLASSIFICATION_TYPE":"U","NORAD_CAT_ID":58079,"ELEMENT_SET_NO":999,"REV_AT_EPOCH":13254,"BSTAR":7.2881e-5,"MEAN_MOTION_DOT":1.744e-5,"MEAN_MOTION_DDOT":0},{"OBJECT_NAME":"STARLINK-30603","OBJECT_ID":"2023-160F","EPOCH":"2026-03-07T02:56:54.102624","MEAN_MOTION":15.26731745,"ECCENTRICITY":0.0002048,"INCLINATION":43.0059,"RA_OF_ASC_NODE":92.3519,"ARG_OF_PERICENTER":300.965,"MEAN_ANOMALY":59.1,"EPHEMERIS_TYPE":0,"CLASSIFICATION_TYPE":"U","NORAD_CAT_ID":58080,"ELEMENT_SET_NO":999,"REV_AT_EPOCH":13255,"BSTAR":6.7577e-5,"MEAN_MOTION_DOT":1.552e-5,"MEAN_MOTION_DDOT":0},{"OBJECT_NAME":"STARLINK-30602","OBJECT_ID":"2023-160G","EPOCH":"2026-03-07T04:00:03.000096","MEAN_MOTION":15.22879351,"ECCENTRICITY":0.0001107,"INCLINATION":43.0009,"RA_OF_ASC_NODE":92.328,"ARG_OF_PERICENTER":269.8859,"MEAN_ANOMALY":230.0372,"EPHEMERIS_TYPE":0,"CLASSIFICATION_TYPE":"U","NORAD_CAT_ID":58081,"ELEMENT_SET_NO":999,"REV_AT_EPOCH":581,"BSTAR":0.00010157,"MEAN_MOTION_DOT":2.178e-5,"MEAN_MOTION_DDOT":0},{"OBJECT_NAME":"STARLINK-30610","OBJECT_ID":"2023-160H","EPOCH":"2026-03-07T03:02:32.432928","MEAN_MOTION":15.26748829,"ECCENTRICITY":0.0001914,"INCLINATION":42.9965,"RA_OF_ASC_NODE":92.368,"ARG_OF_PERICENTER":170.3807,"MEAN_ANOMALY":189.7081,"EPHEMERIS_TYPE":0,"CLASSIFICATION_TYPE":"U","NORAD_CAT_ID":58082,"ELEMENT_SET_NO":999,"REV_AT_EPOCH":13255,"BSTAR":4.2931e-5,"MEAN_MOTION_DOT":8.92e-6,"MEAN_MOTION_DDOT":0},{"OBJECT_NAME":"STARLINK-30551","OBJECT_ID":"2023-160J","EPOCH":"2026-03-07T03:19:47.128224","MEAN_MOTION":15.02534903,"ECCENTRICITY":0.0001225,"INCLINATION":43.0024,"RA_OF_ASC_NODE":94.1567,"ARG_OF_PERICENTER":272.7662,"MEAN_ANOMALY":87.304,"EPHEMERIS_TYPE":0,"CLASSIFICATION_TYPE":"U","NORAD_CAT_ID":58083,"ELEMENT_SET_NO":999,"REV_AT_EPOCH":13253,"BSTAR":-6.1461e-6,"MEAN_MOTION_DOT":-2.87e-6,"MEAN_MOTION_DDOT":0}]
